{
  "type": "FeatureCollection",
  "features": [
    {
      "type": "Feature",
      "properties": {
        "norad_id": 34681,
        "name": "COSMOS 2251 DEB",
        "group": "cosmos-2251-debris",
        "lat": -26.155196675564824,
        "lon": 110.07397772560574,
        "alt_km": 635.9937362042674,
        "timestamp": "2025-12-16T23:36:36.592963+00:00",
        "meta_object_name": "COSMOS 2251 DEB",
        "meta_object_id": "1993-036YB",
        "meta_epoch": "2025-12-16T07:11:57.977376",
        "meta_mean_motion": 14.8330302,
        "meta_eccentricity": 0.00256249,
        "meta_inclination": 74.0628,
        "meta_ra_of_asc_node": 283.3581,
        "meta_arg_of_pericenter": 339.7832,
        "meta_mean_anomaly": 177.8264,
        "meta_ephemeris_type": 0,
        "meta_classification_type": "U",
        "meta_norad_cat_id": 34681,
        "meta_element_set_no": 999,
        "meta_rev_at_epoch": 89323,
        "meta_bstar": 0.00099509952,
        "meta_mean_motion_dot": 8.169e-05,
        "meta_mean_motion_ddot": 0,
        "tle_line1": "1 34681U 93036YB  25350.29997659  .00008169  00000+0  99510-3 0  9994",
        "tle_line2": "2 34681  74.0628 283.3581 0025624 339.7832 177.8264 14.83303020893239"
      },
      "geometry": {
        "type": "Point",
        "coordinates": [
          110.07397772560574,
          -26.155196675564824
        ]
      }
    },
    {
      "type": "Feature",
      "properties": {
        "norad_id": 34682,
        "name": "COSMOS 2251 DEB",
        "group": "cosmos-2251-debris",
        "lat": -47.694811213582966,
        "lon": 56.578341330947275,
        "alt_km": 705.8645721489138,
        "timestamp": "2025-12-16T23:36:36.592973+00:00",
        "meta_object_name": "COSMOS 2251 DEB",
        "meta_object_id": "1993-036YC",
        "meta_epoch": "2025-12-16T05:52:47.377056",
        "meta_mean_motion": 14.58922386,
        "meta_eccentricity": 0.00181823,
        "meta_inclination": 74.0401,
        "meta_ra_of_asc_node": 76.3121,
        "meta_arg_of_pericenter": 208.9542,
        "meta_mean_anomaly": 182.1464,
        "meta_ephemeris_type": 0,
        "meta_classification_type": "U",
        "meta_norad_cat_id": 34682,
        "meta_element_set_no": 999,
        "meta_rev_at_epoch": 88737,
        "meta_bstar": 0.00053709659,
        "meta_mean_motion_dot": 2.494e-05,
        "meta_mean_motion_ddot": 0,
        "tle_line1": "1 34682U 93036YC  25350.24499279  .00002494  00000+0  53710-3 0  9992",
        "tle_line2": "2 34682  74.0401  76.3121 0018182 208.9542 182.1464 14.58922386887378"
      },
      "geometry": {
        "type": "Point",
        "coordinates": [
          56.578341330947275,
          -47.694811213582966
        ]
      }
    },
    {
      "type": "Feature",
      "properties": {
        "norad_id": 34683,
        "name": "COSMOS 2251 DEB",
        "group": "cosmos-2251-debris",
        "lat": -7.470606615231221,
        "lon": -93.7403338525341,
        "alt_km": 669.6499768295516,
        "timestamp": "2025-12-16T23:36:36.592983+00:00",
        "meta_object_name": "COSMOS 2251 DEB",
        "meta_object_id": "1993-036YD",
        "meta_epoch": "2025-12-16T06:30:11.898720",
        "meta_mean_motion": 14.64537018,
        "meta_eccentricity": 0.00180001,
        "meta_inclination": 74.0296,
        "meta_ra_of_asc_node": 85.4775,
        "meta_arg_of_pericenter": 200.5516,
        "meta_mean_anomaly": 190.6422,
        "meta_ephemeris_type": 0,
        "meta_classification_type": "U",
        "meta_norad_cat_id": 34683,
        "meta_element_set_no": 999,
        "meta_rev_at_epoch": 88400,
        "meta_bstar": 0.00087690768,
        "meta_mean_motion_dot": 4.634e-05,
        "meta_mean_motion_ddot": 0,
        "tle_line1": "1 34683U 93036YD  25350.27097105  .00004634  00000+0  87691-3 0  9991",
        "tle_line2": "2 34683  74.0296  85.4775 0018000 200.5516 190.6422 14.64537018884001"
      },
      "geometry": {
        "type": "Point",
        "coordinates": [
          -93.7403338525341,
          -7.470606615231221
        ]
      }
    },
    {
      "type": "Feature",
      "properties": {
        "norad_id": 34685,
        "name": "COSMOS 2251 DEB",
        "group": "cosmos-2251-debris",
        "lat": -48.986417698574364,
        "lon": -20.060415721673113,
        "alt_km": 697.7767530044339,
        "timestamp": "2025-12-16T23:36:36.592993+00:00",
        "meta_object_name": "COSMOS 2251 DEB",
        "meta_object_id": "1993-036YF",
        "meta_epoch": "2025-12-16T05:14:10.519584",
        "meta_mean_motion": 14.57540541,
        "meta_eccentricity": 0.00142871,
        "meta_inclination": 74.0286,
        "meta_ra_of_asc_node": 142.1684,
        "meta_arg_of_pericenter": 246.5072,
        "meta_mean_anomaly": 289.6947,
        "meta_ephemeris_type": 0,
        "meta_classification_type": "U",
        "meta_norad_cat_id": 34685,
        "meta_element_set_no": 999,
        "meta_rev_at_epoch": 88582,
        "meta_bstar": 0.0007718925,
        "meta_mean_motion_dot": 3.488e-05,
        "meta_mean_motion_ddot": 0,
        "tle_line1": "1 34685U 93036YF  25350.21817731  .00003488  00000+0  77189-3 0  9999",
        "tle_line2": "2 34685  74.0286 142.1684 0014287 246.5072 289.6947 14.57540541885821"
      },
      "geometry": {
        "type": "Point",
        "coordinates": [
          -20.060415721673113,
          -48.986417698574364
        ]
      }
    },
    {
      "type": "Feature",
      "properties": {
        "norad_id": 34689,
        "name": "COSMOS 2251 DEB",
        "group": "cosmos-2251-debris",
        "lat": -13.140777617171471,
        "lon": -147.8056439139123,
        "alt_km": 803.1973042742566,
        "timestamp": "2025-12-16T23:36:36.593003+00:00",
        "meta_object_name": "COSMOS 2251 DEB",
        "meta_object_id": "1993-036YK",
        "meta_epoch": "2025-12-15T15:20:16.539648",
        "meta_mean_motion": 14.04491905,
        "meta_eccentricity": 0.02275051,
        "meta_inclination": 74.0901,
        "meta_ra_of_asc_node": 218.3502,
        "meta_arg_of_pericenter": 286.6099,
        "meta_mean_anomaly": 101.262,
        "meta_ephemeris_type": 0,
        "meta_classification_type": "U",
        "meta_norad_cat_id": 34689,
        "meta_element_set_no": 999,
        "meta_rev_at_epoch": 84382,
        "meta_bstar": 0.0020174062,
        "meta_mean_motion_dot": 4.031e-05,
        "meta_mean_motion_ddot": 0,
        "tle_line1": "1 34689U 93036YK  25349.63908032  .00004031  00000+0  20174-2 0  9998",
        "tle_line2": "2 34689  74.0901 218.3502 0227505 286.6099 101.2620 14.04491905843829"
      },
      "geometry": {
        "type": "Point",
        "coordinates": [
          -147.8056439139123,
          -13.140777617171471
        ]
      }
    },
    {
      "type": "Feature",
      "properties": {
        "norad_id": 34721,
        "name": "COSMOS 2251 DEB",
        "group": "cosmos-2251-debris",
        "lat": -70.1237893651822,
        "lon": -168.20557551861717,
        "alt_km": 748.8572471492489,
        "timestamp": "2025-12-16T23:36:36.593013+00:00",
        "meta_object_name": "COSMOS 2251 DEB",
        "meta_object_id": "1993-036YP",
        "meta_epoch": "2025-12-16T05:15:40.510368",
        "meta_mean_motion": 13.96869187,
        "meta_eccentricity": 0.0223437,
        "meta_inclination": 73.9231,
        "meta_ra_of_asc_node": 320.212,
        "meta_arg_of_pericenter": 258.5426,
        "meta_mean_anomaly": 116.3735,
        "meta_ephemeris_type": 0,
        "meta_classification_type": "U",
        "meta_norad_cat_id": 34721,
        "meta_element_set_no": 999,
        "meta_rev_at_epoch": 85198,
        "meta_bstar": 0.00096429819,
        "meta_mean_motion_dot": 1.631e-05,
        "meta_mean_motion_ddot": 0,
        "tle_line1": "1 34721U 93036YP  25350.21921887  .00001631  00000+0  96430-3 0  9996",
        "tle_line2": "2 34721  73.9231 320.2120 0223437 258.5426 116.3735 13.96869187851982"
      },
      "geometry": {
        "type": "Point",
        "coordinates": [
          -168.20557551861717,
          -70.1237893651822
        ]
      }
    },
    {
      "type": "Feature",
      "properties": {
        "norad_id": 34722,
        "name": "COSMOS 2251 DEB",
        "group": "cosmos-2251-debris",
        "lat": -4.115717795477884,
        "lon": -32.6946133906825,
        "alt_km": 880.0503273413351,
        "timestamp": "2025-12-16T23:36:36.593023+00:00",
        "meta_object_name": "COSMOS 2251 DEB",
        "meta_object_id": "1993-036YQ",
        "meta_epoch": "2025-12-16T05:00:13.466880",
        "meta_mean_motion": 14.11946282,
        "meta_eccentricity": 0.01669495,
        "meta_inclination": 73.873,
        "meta_ra_of_asc_node": 329.8804,
        "meta_arg_of_pericenter": 254.8406,
        "meta_mean_anomaly": 119.9542,
        "meta_ephemeris_type": 0,
        "meta_classification_type": "U",
        "meta_norad_cat_id": 34722,
        "meta_element_set_no": 999,
        "meta_rev_at_epoch": 86294,
        "meta_bstar": 0.00066061762,
        "meta_mean_motion_dot": 1.351e-05,
        "meta_mean_motion_ddot": 0,
        "tle_line1": "1 34722U 93036YQ  25350.20848920  .00001351  00000+0  66062-3 0  9999",
        "tle_line2": "2 34722  73.8730 329.8804 0166949 254.8406 119.9542 14.11946282862944"
      },
      "geometry": {
        "type": "Point",
        "coordinates": [
          -32.6946133906825,
          -4.115717795477884
        ]
      }
    }
  ]
}